{
  "type": "FeatureCollection",
  "features": [
    {
      "type": "Feature",
      "properties": {
        "norad_id": 32332,
        "name": "FENGYUN 1C DEB",
        "group": "fengyun-1c-debris",
        "lat": -49.38929481302357,
        "lon": -137.66437369912563,
        "alt_km": 769.6313916303652,
        "timestamp": "2025-12-25T03:55:56.644310+00:00",
        "meta_object_name": "FENGYUN 1C DEB",
        "meta_object_id": "1999-025CXZ",
        "meta_epoch": "2025-12-15T21:05:55.809024",
        "meta_mean_motion": 13.97153731,
        "meta_eccentricity": 0.02851681,
        "meta_inclination": 99.133,
        "meta_ra_of_asc_node": 43.9123,
        "meta_arg_of_pericenter": 304.1737,
        "meta_mean_anomaly": 53.2688,
        "meta_ephemeris_type": 0,
        "meta_classification_type": "U",
        "meta_norad_cat_id": 32332,
        "meta_element_set_no": 999,
        "meta_rev_at_epoch": 93080,
        "meta_bstar": 0.0011409516,
        "meta_mean_motion_dot": 2.204e-05,
        "meta_mean_motion_ddot": 0,
        "tle_line1": "1 32332U 99025CXZ 25349.87911816  .00002204  00000+0  11410-2 0  9998",
        "tle_line2": "2 32332  99.1330  43.9123 0285168 304.1737  53.2688 13.97153731930809"
      },
      "geometry": {
        "type": "Point",
        "coordinates": [
          -137.66437369912563,
          -49.38929481302357
        ]
      }
    },
    {
      "type": "Feature",
      "properties": {
        "norad_id": 32334,
        "name": "FENGYUN 1C DEB",
        "group": "fengyun-1c-debris",
        "lat": -79.800623064458,
        "lon": 168.81466888323286,
        "alt_km": 849.2707643820904,
        "timestamp": "2025-12-25T03:55:56.644320+00:00",
        "meta_object_name": "FENGYUN 1C DEB",
        "meta_object_id": "1999-025CYB",
        "meta_epoch": "2025-12-24T14:40:26.395968",
        "meta_mean_motion": 14.01652473,
        "meta_eccentricity": 0.0067157,
        "meta_inclination": 99.2504,
        "meta_ra_of_asc_node": 53.1864,
        "meta_arg_of_pericenter": 247.9551,
        "meta_mean_anomaly": 111.4472,
        "meta_ephemeris_type": 0,
        "meta_classification_type": "U",
        "meta_norad_cat_id": 32334,
        "meta_element_set_no": 999,
        "meta_rev_at_epoch": 94106,
        "meta_bstar": 0.00027411,
        "meta_mean_motion_dot": 3.77e-06,
        "meta_mean_motion_ddot": 0,
        "tle_line1": "1 32334U 99025CYB 25358.61141662  .00000377  00000+0  27411-3 0  9994",
        "tle_line2": "2 32334  99.2504  53.1864 0067157 247.9551 111.4472 14.01652473941065"
      },
      "geometry": {
        "type": "Point",
        "coordinates": [
          168.81466888323286,
          -79.800623064458
        ]
      }
    },
    {
      "type": "Feature",
      "properties": {
        "norad_id": 32340,
        "name": "FENGYUN 1C DEB",
        "group": "fengyun-1c-debris",
        "lat": -22.43950704620444,
        "lon": -177.43716361967867,
        "alt_km": 635.9925572157745,
        "timestamp": "2025-12-25T03:55:56.644331+00:00",
        "meta_object_name": "FENGYUN 1C DEB",
        "meta_object_id": "1999-025CYH",
        "meta_epoch": "2025-12-23T07:03:11.292480",
        "meta_mean_motion": 14.74893451,
        "meta_eccentricity": 0.00335712,
        "meta_inclination": 98.9803,
        "meta_ra_of_asc_node": 4.235,
        "meta_arg_of_pericenter": 260.0415,
        "meta_mean_anomaly": 99.7002,
        "meta_ephemeris_type": 0,
        "meta_classification_type": "U",
        "meta_norad_cat_id": 32340,
        "meta_element_set_no": 999,
        "meta_rev_at_epoch": 97352,
        "meta_bstar": 0.0022824537,
        "meta_mean_motion_dot": 0.00015424,
        "meta_mean_motion_ddot": 0,
        "tle_line1": "1 32340U 99025CYH 25357.29388070  .00015424  00000+0  22825-2 0  9992",
        "tle_line2": "2 32340  98.9803   4.2350 0033571 260.0415  99.7002 14.74893451973521"
      },
      "geometry": {
        "type": "Point",
        "coordinates": [
          -177.43716361967867,
          -22.43950704620444
        ]
      }
    },
    {
      "type": "Feature",
      "properties": {
        "norad_id": 32342,
        "name": "FENGYUN 1C DEB",
        "group": "fengyun-1c-debris",
        "lat": 64.71587802455417,
        "lon": -11.459373681300448,
        "alt_km": 843.2881998801759,
        "timestamp": "2025-12-25T03:55:56.644341+00:00",
        "meta_object_name": "FENGYUN 1C DEB",
        "meta_object_id": "1999-025CYK",
        "meta_epoch": "2025-12-24T19:57:37.298016",
        "meta_mean_motion": 14.13403536,
        "meta_eccentricity": 0.0006927,
        "meta_inclination": 98.6699,
        "meta_ra_of_asc_node": 7.0643,
        "meta_arg_of_pericenter": 314.9829,
        "meta_mean_anomaly": 221.9358,
        "meta_ephemeris_type": 0,
        "meta_classification_type": "U",
        "meta_norad_cat_id": 32342,
        "meta_element_set_no": 999,
        "meta_rev_at_epoch": 93888,
        "meta_bstar": 9.761e-05,
        "meta_mean_motion_dot": 1.41e-06,
        "meta_mean_motion_ddot": 0,
        "tle_line1": "1 32342U 99025CYK 25358.83168169  .00000141  00000+0  97610-4 0  9996",
        "tle_line2": "2 32342  98.6699   7.0643 0006927 314.9829 221.9358 14.13403536938889"
      },
      "geometry": {
        "type": "Point",
        "coordinates": [
          -11.459373681300448,
          64.71587802455417
        ]
      }
    },
    {
      "type": "Feature",
      "properties": {
        "norad_id": 32343,
        "name": "FENGYUN 1C DEB",
        "group": "fengyun-1c-debris",
        "lat": 7.711447573329691,
        "lon": 166.77524751907626,
        "alt_km": 807.540684489275,
        "timestamp": "2025-12-25T03:55:56.644351+00:00",
        "meta_object_name": "FENGYUN 1C DEB",
        "meta_object_id": "1999-025CYL",
        "meta_epoch": "2025-12-13T05:18:56.833632",
        "meta_mean_motion": 14.19848796,
        "meta_eccentricity": 0.01521973,
        "meta_inclination": 98.6084,
        "meta_ra_of_asc_node": 333.9812,
        "meta_arg_of_pericenter": 126.2805,
        "meta_mean_anomaly": 235.2541,
        "meta_ephemeris_type": 0,
        "meta_classification_type": "U",
        "meta_norad_cat_id": 32343,
        "meta_element_set_no": 999,
        "meta_rev_at_epoch": 64720,
        "meta_bstar": 0.00041342117,
        "meta_mean_motion_dot": 9.43e-06,
        "meta_mean_motion_ddot": 0,
        "tle_line1": "1 32343U 99025CYL 25347.22149113  .00000943  00000+0  41342-3 0  9996",
        "tle_line2": "2 32343  98.6084 333.9812 0152197 126.2805 235.2541 14.19848796647208"
      },
      "geometry": {
        "type": "Point",
        "coordinates": [
          166.77524751907626,
          7.711447573329691
        ]
      }
    },
    {
      "type": "Feature",
      "properties": {
        "norad_id": 32350,
        "name": "FENGYUN 1C DEB",
        "group": "fengyun-1c-debris",
        "lat": 70.81139937825219,
        "lon": -111.7464234741736,
        "alt_km": 877.2547567536585,
        "timestamp": "2025-12-25T03:55:56.644383+00:00",
        "meta_object_name": "FENGYUN 1C DEB",
        "meta_object_id": "1999-025CYT",
        "meta_epoch": "2025-12-23T20:00:36.959040",
        "meta_mean_motion": 14.52655293,
        "meta_eccentricity": 0.0266548,
        "meta_inclination": 98.2271,
        "meta_ra_of_asc_node": 42.3822,
        "meta_arg_of_pericenter": 264.2753,
        "meta_mean_anomaly": 92.7999,
        "meta_ephemeris_type": 0,
        "meta_classification_type": "U",
        "meta_norad_cat_id": 32350,
        "meta_element_set_no": 999,
        "meta_rev_at_epoch": 97688,
        "meta_bstar": 0.00070823,
        "meta_mean_motion_dot": 4.579e-05,
        "meta_mean_motion_ddot": 0,
        "tle_line1": "1 32350U 99025CYT 25357.83376110  .00004579  00000+0  70823-3 0  9996",
        "tle_line2": "2 32350  98.2271  42.3822 0266548 264.2753  92.7999 14.52655293976880"
      },
      "geometry": {
        "type": "Point",
        "coordinates": [
          -111.7464234741736,
          70.81139937825219
        ]
      }
    },
    {
      "type": "Feature",
      "properties": {
        "norad_id": 32352,
        "name": "FENGYUN 1C DEB",
        "group": "fengyun-1c-debris",
        "lat": 68.52732689918025,
        "lon": -103.61779463796807,
        "alt_km": 707.6333709349237,
        "timestamp": "2025-12-25T03:55:56.644395+00:00",
        "meta_object_name": "FENGYUN 1C DEB",
        "meta_object_id": "1999-025CYV",
        "meta_epoch": "2025-12-19T12:39:41.171040",
        "meta_mean_motion": 14.41429626,
        "meta_eccentricity": 0.0122359,
        "meta_inclination": 98.7786,
        "meta_ra_of_asc_node": 273.7231,
        "meta_arg_of_pericenter": 150.9024,
        "meta_mean_anomaly": 209.9056,
        "meta_ephemeris_type": 0,
        "meta_classification_type": "U",
        "meta_norad_cat_id": 32352,
        "meta_element_set_no": 999,
        "meta_rev_at_epoch": 65367,
        "meta_bstar": 0.0001377,
        "meta_mean_motion_dot": 4.38e-06,
        "meta_mean_motion_ddot": 0,
        "tle_line1": "1 32352U 99025CYV 25353.52755985  .00000438  00000+0  13770-3 0  9999",
        "tle_line2": "2 32352  98.7786 273.7231 0122359 150.9024 209.9056 14.41429626653677"
      },
      "geometry": {
        "type": "Point",
        "coordinates": [
          -103.61779463796807,
          68.52732689918025
        ]
      }
    }
  ]
}